{
  "type": "FeatureCollection",
  "features": [
    {
      "type": "Feature",
      "properties": {
        "norad_id": 37846,
        "name": "GSAT0101 (GALILEO-PFM)",
        "group": "gnss",
        "lat": 48.666875234165616,
        "lon": 118.95987789934387,
        "alt_km": 23225.06621914552,
        "timestamp": "2025-12-25T09:48:52.534100+00:00",
        "meta_object_name": "GSAT0101 (GALILEO-PFM)",
        "meta_object_id": "2011-060A",
        "meta_epoch": "2025-12-24T15:10:54.849792",
        "meta_mean_motion": 1.70475643,
        "meta_eccentricity": 0.0003261,
        "meta_inclination": 57.05,
        "meta_ra_of_asc_node": 346.4975,
        "meta_arg_of_pericenter": 321.0017,
        "meta_mean_anomaly": 38.9828,
        "meta_ephemeris_type": 0,
        "meta_classification_type": "U",
        "meta_norad_cat_id": 37846,
        "meta_element_set_no": 999,
        "meta_rev_at_epoch": 8814,
        "meta_bstar": 0,
        "meta_mean_motion_dot": -6.1e-07,
        "meta_mean_motion_ddot": 0,
        "tle_line1": "1 37846U 11060A   25358.63257928 -.00000061  00000+0  00000+0 0  9997",
        "tle_line2": "2 37846  57.0500 346.4975 0003261 321.0017  38.9828  1.70475643 88147"
      },
      "geometry": {
        "type": "Point",
        "coordinates": [
          118.95987789934387,
          48.666875234165616
        ]
      }
    },
    {
      "type": "Feature",
      "properties": {
        "norad_id": 37847,
        "name": "GSAT0102 (GALILEO-FM2)",
        "group": "gnss",
        "lat": 15.075120162481182,
        "lon": 156.40563042562928,
        "alt_km": 23233.653829230054,
        "timestamp": "2025-12-25T09:48:52.534112+00:00",
        "meta_object_name": "GSAT0102 (GALILEO-FM2)",
        "meta_object_id": "2011-060B",
        "meta_epoch": "2025-12-22T11:58:40.586304",
        "meta_mean_motion": 1.70475957,
        "meta_eccentricity": 0.00051595,
        "meta_inclination": 57.0512,
        "meta_ra_of_asc_node": 346.5558,
        "meta_arg_of_pericenter": 313.0615,
        "meta_mean_anomaly": 223.0229,
        "meta_ephemeris_type": 0,
        "meta_classification_type": "U",
        "meta_norad_cat_id": 37847,
        "meta_element_set_no": 999,
        "meta_rev_at_epoch": 8811,
        "meta_bstar": 0,
        "meta_mean_motion_dot": -6.5e-07,
        "meta_mean_motion_ddot": 0,
        "tle_line1": "1 37847U 11060B   25356.49908086 -.00000065  00000+0  00000+0 0  9992",
        "tle_line2": "2 37847  57.0512 346.5558 0005159 313.0615 223.0229  1.70475957 88119"
      },
      "geometry": {
        "type": "Point",
        "coordinates": [
          156.40563042562928,
          15.075120162481182
        ]
      }
    },
    {
      "type": "Feature",
      "properties": {
        "norad_id": 37867,
        "name": "COSMOS 2476 (744)",
        "group": "gnss",
        "lat": 41.75071024667678,
        "lon": 103.12832056798412,
        "alt_km": 19186.926940637797,
        "timestamp": "2025-12-25T09:48:52.534132+00:00",
        "meta_object_name": "COSMOS 2476 (744)",
        "meta_object_id": "2011-064A",
        "meta_epoch": "2025-12-24T09:57:47.072160",
        "meta_mean_motion": 2.13103925,
        "meta_eccentricity": 0.00245084,
        "meta_inclination": 65.1679,
        "meta_ra_of_asc_node": 78.7766,
        "meta_arg_of_pericenter": 235.0068,
        "meta_mean_anomaly": 129.7601,
        "meta_ephemeris_type": 0,
        "meta_classification_type": "U",
        "meta_norad_cat_id": 37867,
        "meta_element_set_no": 999,
        "meta_rev_at_epoch": 11004,
        "meta_bstar": 0,
        "meta_mean_motion_dot": 1e-08,
        "meta_mean_motion_ddot": 0,
        "tle_line1": "1 37867U 11064A   25358.41512815  .00000001  00000+0  00000+0 0  9992",
        "tle_line2": "2 37867  65.1679  78.7766 0024508 235.0068 129.7601  2.13103925110049"
      },
      "geometry": {
        "type": "Point",
        "coordinates": [
          103.12832056798412,
          41.75071024667678
        ]
      }
    },
    {
      "type": "Feature",
      "properties": {
        "norad_id": 37868,
        "name": "COSMOS 2477 (745)",
        "group": "gnss",
        "lat": -42.46136877403046,
        "lon": -76.14527403172136,
        "alt_km": 19080.418563996853,
        "timestamp": "2025-12-25T09:48:52.534145+00:00",
        "meta_object_name": "COSMOS 2477 (745)",
        "meta_object_id": "2011-064B",
        "meta_epoch": "2025-12-24T15:22:57.950400",
        "meta_mean_motion": 2.13103036,
        "meta_eccentricity": 0.00215718,
        "meta_inclination": 65.1748,
        "meta_ra_of_asc_node": 78.8466,
        "meta_arg_of_pericenter": 235.4688,
        "meta_mean_anomaly": 123.4303,
        "meta_ephemeris_type": 0,
        "meta_classification_type": "U",
        "meta_norad_cat_id": 37868,
        "meta_element_set_no": 999,
        "meta_rev_at_epoch": 11003,
        "meta_bstar": 0,
        "meta_mean_motion_dot": 1e-08,
        "meta_mean_motion_ddot": 0,
        "tle_line1": "1 37868U 11064B   25358.64094850  .00000001  00000+0  00000+0 0  9992",
        "tle_line2": "2 37868  65.1748  78.8466 0021571 235.4688 123.4303  2.13103036110036"
      },
      "geometry": {
        "type": "Point",
        "coordinates": [
          -76.14527403172136,
          -42.46136877403046
        ]
      }
    },
    {
      "type": "Feature",
      "properties": {
        "norad_id": 37869,
        "name": "COSMOS 2475 (743)",
        "group": "gnss",
        "lat": -3.3540462834106584,
        "lon": -99.59496496100566,
        "alt_km": 19102.450629388906,
        "timestamp": "2025-12-25T09:48:52.534157+00:00",
        "meta_object_name": "COSMOS 2475 (743)",
        "meta_object_id": "2011-064C",
        "meta_epoch": "2025-12-25T05:57:40.330080",
        "meta_mean_motion": 2.1310165,
        "meta_eccentricity": 0.0026773,
        "meta_inclination": 65.1818,
        "meta_ra_of_asc_node": 78.8463,
        "meta_arg_of_pericenter": 249.2295,
        "meta_mean_anomaly": 171.5586,
        "meta_ephemeris_type": 0,
        "meta_classification_type": "U",
        "meta_norad_cat_id": 37869,
        "meta_element_set_no": 999,
        "meta_rev_at_epoch": 11006,
        "meta_bstar": 0,
        "meta_mean_motion_dot": -1e-08,
        "meta_mean_motion_ddot": 0,
        "tle_line1": "1 37869U 11064C   25359.24838345 -.00000001  00000+0  00000+0 0  9996",
        "tle_line2": "2 37869  65.1818  78.8463 0026773 249.2295 171.5586  2.13101650110068"
      },
      "geometry": {
        "type": "Point",
        "coordinates": [
          -99.59496496100566,
          -3.3540462834106584
        ]
      }
    },
    {
      "type": "Feature",
      "properties": {
        "norad_id": 37948,
        "name": "BEIDOU-2 IGSO-5 (C10)",
        "group": "gnss",
        "lat": 40.512605485357724,
        "lon": -36.07336106863134,
        "alt_km": 36213.92738074454,
        "timestamp": "2025-12-25T09:48:52.534169+00:00",
        "meta_object_name": "BEIDOU-2 IGSO-5 (C10)",
        "meta_object_id": "2011-073A",
        "meta_epoch": "2025-12-24T17:40:34.414752",
        "meta_mean_motion": 1.00288414,
        "meta_eccentricity": 0.01097165,
        "meta_inclination": 47.9979,
        "meta_ra_of_asc_node": 273.7118,
        "meta_arg_of_pericenter": 222.1575,
        "meta_mean_anomaly": 316.4289,
        "meta_ephemeris_type": 0,
        "meta_classification_type": "U",
        "meta_norad_cat_id": 37948,
        "meta_element_set_no": 999,
        "meta_rev_at_epoch": 5138,
        "meta_bstar": 0,
        "meta_mean_motion_dot": -1.39e-06,
        "meta_mean_motion_ddot": 0,
        "tle_line1": "1 37948U 11073A   25358.73650943 -.00000139  00000+0  00000+0 0  9995",
        "tle_line2": "2 37948  47.9979 273.7118 0109716 222.1575 316.4289  1.00288414 51383"
      },
      "geometry": {
        "type": "Point",
        "coordinates": [
          -36.07336106863134,
          40.512605485357724
        ]
      }
    },
    {
      "type": "Feature",
      "properties": {
        "norad_id": 37951,
        "name": "LUCH 5A (SDCM/PRN 140)",
        "group": "gnss",
        "lat": -3.880043323712148,
        "lon": 48.691818505504784,
        "alt_km": 35804.40716513766,
        "timestamp": "2025-12-25T09:48:52.534181+00:00",
        "meta_object_name": "LUCH 5A (SDCM/PRN 140)",
        "meta_object_id": "2011-074B",
        "meta_epoch": "2025-12-24T22:27:17.315712",
        "meta_mean_motion": 1.00268947,
        "meta_eccentricity": 0.0005251,
        "meta_inclination": 8.3088,
        "meta_ra_of_asc_node": 76.4049,
        "meta_arg_of_pericenter": 192.019,
        "meta_mean_anomaly": 329.1245,
        "meta_ephemeris_type": 0,
        "meta_classification_type": "U",
        "meta_norad_cat_id": 37951,
        "meta_element_set_no": 999,
        "meta_rev_at_epoch": 5130,
        "meta_bstar": 0,
        "meta_mean_motion_dot": -3.1e-07,
        "meta_mean_motion_ddot": 0,
        "tle_line1": "1 37951U 11074B   25358.93561708 -.00000031  00000+0  00000+0 0  9993",
        "tle_line2": "2 37951   8.3088  76.4049 0005251 192.0190 329.1245  1.00268947 51301"
      },
      "geometry": {
        "type": "Point",
        "coordinates": [
          48.691818505504784,
          -3.880043323712148
        ]
      }
    }
  ]
}